ONEWEB-0427             
1 50499U 21132AG  26185.65256933  .00000028  00000+0  39048-4 0  9994
2 50499  87.9190 331.9612 0001897  89.6674 270.4675 13.18686395223911
ONEWEB-0429             
1 50500U 21132AH  26185.63907036  .00000074  00000+0  15421-3 0  9991
2 50500  87.9180 331.9869 0001827 100.1233 260.0105 13.18687187223889
ONEWEB-0430             
1 50501U 21132AJ  26185.85490353  .00000039  00000+0  64993-4 0  9995
2 50501  87.9181 331.9425 0001937 104.3176 255.8172 13.18687710223959
ONEWEB-0432             
1 50502U 21132AK  26186.00003472 -.00039424  00000+0 -10043+0 0  9990
2 50502  87.9200 331.8999 0002300 101.4417 307.9161 13.18709472  5087
ONEWEB-0440             
1 50503U 21132AL  26185.87513361 -.00000003  00000+0 -40619-4 0  9996
2 50503  87.9190 331.9358 0001513 100.0259 260.1044 13.18686557223901
ONEWEB-0450             
1 50504U 21132AM  26185.86852980  .00000020  00000+0  17607-4 0  9997
2 50504  87.9179 331.9405 0001868 102.6688 257.4654 13.18686305223939
ONEWEB-0410             
1 51622U 22012A   26185.91040654  .00000015  00000+0  61227-5 0  9992
2 51622  87.9148   2.3325 0002367  56.6560 303.4798 13.17649613216033
ONEWEB-0411             
1 51623U 22012B   26185.80466360  .00000447  00000+0  12434-2 0  9999
2 51623  87.8824  32.7577 0002137 100.0514 260.0854 13.10372603211590
ONEWEB-0415             
1 51624U 22012C   26186.03034014  .00000631  00000+0  17712-2 0  9992
2 51624  87.8822  32.7107 0002112  89.9855 270.1514 13.10373509211629
ONEWEB-0416             
1 51625U 22012D   26186.04221184  .00000138  00000+0  35764-3 0  9990
2 51625  87.8812  32.7257 0002211  87.9006 272.2375 13.10371120211660
ONEWEB-0422             
1 51626U 22012E   26185.92053018  .00000003  00000+0 -24435-4 0  9992
2 51626  87.9143   2.3313 0001541 109.9743 250.1554 13.17650275216143
ONEWEB-0423             
1 51627U 22012F   26185.91376922  .00000017  00000+0  11257-4 0  9996
2 51627  87.9138   2.3372 0001818  87.7201 272.4139 13.17647793216037
ONEWEB-0425             
1 51628U 22012G   26185.97603216 -.00000144  00000+0 -44756-3 0  9994
2 51628  87.8818  32.7229 0001948  74.5017 285.6325 13.10370848211656
ONEWEB-0428             
1 51629U 22012H   26186.03203719  .00000593  00000+0  16625-2 0  9996
2 51629  87.8817  32.7184 0001850  86.6095 273.5244 13.10373187211620
ONEWEB-0431             
1 51630U 22012J   26186.00130558 -.00000363  00000+0 -10768-2 0  9994
2 51630  87.8826  32.7173 0002168 101.0271 259.1101 13.10375674211671
ONEWEB-0434             
1 51631U 22012K   26185.97955086 -.00000513  00000+0 -15066-2 0  9994
2 51631  87.8822  32.7476 0001837  65.5499 294.5820 13.10367052211652
