{"fetched_at":"2026-07-05T12:47:17.871Z","source":"https://celestrak.org/NORAD/elements/gp.php?GROUP=oneweb&FORMAT=JSON","constellation":"oneweb","records":[{"OBJECT_NAME":"ONEWEB-0427","OBJECT_ID":"2021-132AG","EPOCH":"2026-07-04T15:39:41.990112","CLASSIFICATION_TYPE":"U","MEAN_MOTION":13.18686395,"ECCENTRICITY":0.0001897,"INCLINATION":87.919,"RA_OF_ASC_NODE":331.9612,"ARG_OF_PERICENTER":89.6674,"MEAN_ANOMALY":270.4675,"EPHEMERIS_TYPE":0,"NORAD_CAT_ID":50499,"ELEMENT_SET_NO":999,"REV_AT_EPOCH":22391,"BSTAR":0.00003904786,"MEAN_MOTION_DOT":2.8e-7,"MEAN_MOTION_DDOT":0},{"OBJECT_NAME":"ONEWEB-0429","OBJECT_ID":"2021-132AH","EPOCH":"2026-07-04T15:20:15.679104","CLASSIFICATION_TYPE":"U","MEAN_MOTION":13.18687187,"ECCENTRICITY":0.0001827,"INCLINATION":87.918,"RA_OF_ASC_NODE":331.9869,"ARG_OF_PERICENTER":100.1233,"MEAN_ANOMALY":260.0105,"EPHEMERIS_TYPE":0,"NORAD_CAT_ID":50500,"ELEMENT_SET_NO":999,"REV_AT_EPOCH":22388,"BSTAR":0.00015420844,"MEAN_MOTION_DOT":7.4e-7,"MEAN_MOTION_DDOT":0},{"OBJECT_NAME":"ONEWEB-0430","OBJECT_ID":"2021-132AJ","EPOCH":"2026-07-04T20:31:03.664992","CLASSIFICATION_TYPE":"U","MEAN_MOTION":13.1868771,"ECCENTRICITY":0.00019376,"INCLINATION":87.9181,"RA_OF_ASC_NODE":331.9425,"ARG_OF_PERICENTER":104.3176,"MEAN_ANOMALY":255.8172,"EPHEMERIS_TYPE":0,"NORAD_CAT_ID":50501,"ELEMENT_SET_NO":999,"REV_AT_EPOCH":22395,"BSTAR":0.000064993383,"MEAN_MOTION_DOT":3.9e-7,"MEAN_MOTION_DDOT":0},{"OBJECT_NAME":"ONEWEB-0432","OBJECT_ID":"2021-132AK","EPOCH":"2026-07-05T00:00:02.999808","CLASSIFICATION_TYPE":"U","MEAN_MOTION":13.18709472,"ECCENTRICITY":0.00023004,"INCLINATION":87.92,"RA_OF_ASC_NODE":331.8999,"ARG_OF_PERICENTER":101.4417,"MEAN_ANOMALY":307.9161,"EPHEMERIS_TYPE":0,"NORAD_CAT_ID":50502,"ELEMENT_SET_NO":999,"REV_AT_EPOCH":508,"BSTAR":-0.10042828,"MEAN_MOTION_DOT":-0.00039424,"MEAN_MOTION_DDOT":0},{"OBJECT_NAME":"ONEWEB-0440","OBJECT_ID":"2021-132AL","EPOCH":"2026-07-04T21:00:11.543904","CLASSIFICATION_TYPE":"U","MEAN_MOTION":13.18686557,"ECCENTRICITY":0.00015139,"INCLINATION":87.919,"RA_OF_ASC_NODE":331.9358,"ARG_OF_PERICENTER":100.0259,"MEAN_ANOMALY":260.1044,"EPHEMERIS_TYPE":0,"NORAD_CAT_ID":50503,"ELEMENT_SET_NO":999,"REV_AT_EPOCH":22390,"BSTAR":-0.000040619468,"MEAN_MOTION_DOT":-3e-8,"MEAN_MOTION_DDOT":0},{"OBJECT_NAME":"ONEWEB-0450","OBJECT_ID":"2021-132AM","EPOCH":"2026-07-04T20:50:40.974720","CLASSIFICATION_TYPE":"U","MEAN_MOTION":13.18686305,"ECCENTRICITY":0.00018683,"INCLINATION":87.9179,"RA_OF_ASC_NODE":331.9405,"ARG_OF_PERICENTER":102.6688,"MEAN_ANOMALY":257.4654,"EPHEMERIS_TYPE":0,"NORAD_CAT_ID":50504,"ELEMENT_SET_NO":999,"REV_AT_EPOCH":22393,"BSTAR":0.000017607301,"MEAN_MOTION_DOT":2e-7,"MEAN_MOTION_DDOT":0},{"OBJECT_NAME":"ONEWEB-0410","OBJECT_ID":"2022-012A","EPOCH":"2026-07-04T21:50:59.125056","CLASSIFICATION_TYPE":"U","MEAN_MOTION":13.17649613,"ECCENTRICITY":0.00023672,"INCLINATION":87.9148,"RA_OF_ASC_NODE":2.3325,"ARG_OF_PERICENTER":56.656,"MEAN_ANOMALY":303.4798,"EPHEMERIS_TYPE":0,"NORAD_CAT_ID":51622,"ELEMENT_SET_NO":999,"REV_AT_EPOCH":21603,"BSTAR":0.000006122712,"MEAN_MOTION_DOT":1.5e-7,"MEAN_MOTION_DDOT":0},{"OBJECT_NAME":"ONEWEB-0411","OBJECT_ID":"2022-012B","EPOCH":"2026-07-04T19:18:42.935040","CLASSIFICATION_TYPE":"U","MEAN_MOTION":13.10372603,"ECCENTRICITY":0.00021376,"INCLINATION":87.8824,"RA_OF_ASC_NODE":32.7577,"ARG_OF_PERICENTER":100.0514,"MEAN_ANOMALY":260.0854,"EPHEMERIS_TYPE":0,"NORAD_CAT_ID":51623,"ELEMENT_SET_NO":999,"REV_AT_EPOCH":21159,"BSTAR":0.0012433775,"MEAN_MOTION_DOT":0.00000447,"MEAN_MOTION_DDOT":0},{"OBJECT_NAME":"ONEWEB-0415","OBJECT_ID":"2022-012C","EPOCH":"2026-07-05T00:43:41.388096","CLASSIFICATION_TYPE":"U","MEAN_MOTION":13.10373509,"ECCENTRICITY":0.0002112,"INCLINATION":87.8822,"RA_OF_ASC_NODE":32.7107,"ARG_OF_PERICENTER":89.9855,"MEAN_ANOMALY":270.1514,"EPHEMERIS_TYPE":0,"NORAD_CAT_ID":51624,"ELEMENT_SET_NO":999,"REV_AT_EPOCH":21162,"BSTAR":0.0017711947,"MEAN_MOTION_DOT":0.00000631,"MEAN_MOTION_DDOT":0},{"OBJECT_NAME":"ONEWEB-0416","OBJECT_ID":"2022-012D","EPOCH":"2026-07-05T01:00:47.102976","CLASSIFICATION_TYPE":"U","MEAN_MOTION":13.1037112,"ECCENTRICITY":0.00022116,"INCLINATION":87.8812,"RA_OF_ASC_NODE":32.7257,"ARG_OF_PERICENTER":87.9006,"MEAN_ANOMALY":272.2375,"EPHEMERIS_TYPE":0,"NORAD_CAT_ID":51625,"ELEMENT_SET_NO":999,"REV_AT_EPOCH":21166,"BSTAR":0.00035763757,"MEAN_MOTION_DOT":0.00000138,"MEAN_MOTION_DDOT":0},{"OBJECT_NAME":"ONEWEB-0422","OBJECT_ID":"2022-012E","EPOCH":"2026-07-04T22:05:33.807552","CLASSIFICATION_TYPE":"U","MEAN_MOTION":13.17650275,"ECCENTRICITY":0.00015411,"INCLINATION":87.9143,"RA_OF_ASC_NODE":2.3313,"ARG_OF_PERICENTER":109.9743,"MEAN_ANOMALY":250.1554,"EPHEMERIS_TYPE":0,"NORAD_CAT_ID":51626,"ELEMENT_SET_NO":999,"REV_AT_EPOCH":21614,"BSTAR":-0.000024435054,"MEAN_MOTION_DOT":3e-8,"MEAN_MOTION_DDOT":0},{"OBJECT_NAME":"ONEWEB-0423","OBJECT_ID":"2022-012F","EPOCH":"2026-07-04T21:55:49.660608","CLASSIFICATION_TYPE":"U","MEAN_MOTION":13.17647793,"ECCENTRICITY":0.00018182,"INCLINATION":87.9138,"RA_OF_ASC_NODE":2.3372,"ARG_OF_PERICENTER":87.7201,"MEAN_ANOMALY":272.4139,"EPHEMERIS_TYPE":0,"NORAD_CAT_ID":51627,"ELEMENT_SET_NO":999,"REV_AT_EPOCH":21603,"BSTAR":0.000011256764,"MEAN_MOTION_DOT":1.7e-7,"MEAN_MOTION_DDOT":0},{"OBJECT_NAME":"ONEWEB-0425","OBJECT_ID":"2022-012G","EPOCH":"2026-07-04T23:25:29.178624","CLASSIFICATION_TYPE":"U","MEAN_MOTION":13.10370848,"ECCENTRICITY":0.00019485,"INCLINATION":87.8818,"RA_OF_ASC_NODE":32.7229,"ARG_OF_PERICENTER":74.5017,"MEAN_ANOMALY":285.6325,"EPHEMERIS_TYPE":0,"NORAD_CAT_ID":51628,"ELEMENT_SET_NO":999,"REV_AT_EPOCH":21165,"BSTAR":-0.00044756081,"MEAN_MOTION_DOT":-0.00000144,"MEAN_MOTION_DDOT":0},{"OBJECT_NAME":"ONEWEB-0428","OBJECT_ID":"2022-012H","EPOCH":"2026-07-05T00:46:08.013216","CLASSIFICATION_TYPE":"U","MEAN_MOTION":13.10373187,"ECCENTRICITY":0.00018503,"INCLINATION":87.8817,"RA_OF_ASC_NODE":32.7184,"ARG_OF_PERICENTER":86.6095,"MEAN_ANOMALY":273.5244,"EPHEMERIS_TYPE":0,"NORAD_CAT_ID":51629,"ELEMENT_SET_NO":999,"REV_AT_EPOCH":21162,"BSTAR":0.0016625164,"MEAN_MOTION_DOT":0.00000593,"MEAN_MOTION_DDOT":0},{"OBJECT_NAME":"ONEWEB-0431","OBJECT_ID":"2022-012J","EPOCH":"2026-07-05T00:01:52.802112","CLASSIFICATION_TYPE":"U","MEAN_MOTION":13.10375674,"ECCENTRICITY":0.0002168,"INCLINATION":87.8826,"RA_OF_ASC_NODE":32.7173,"ARG_OF_PERICENTER":101.0271,"MEAN_ANOMALY":259.1101,"EPHEMERIS_TYPE":0,"NORAD_CAT_ID":51630,"ELEMENT_SET_NO":999,"REV_AT_EPOCH":21167,"BSTAR":-0.001076849,"MEAN_MOTION_DOT":-0.00000363,"MEAN_MOTION_DDOT":0},{"OBJECT_NAME":"ONEWEB-0434","OBJECT_ID":"2022-012K","EPOCH":"2026-07-04T23:30:33.194304","CLASSIFICATION_TYPE":"U","MEAN_MOTION":13.10367052,"ECCENTRICITY":0.00018378,"INCLINATION":87.8822,"RA_OF_ASC_NODE":32.7476,"ARG_OF_PERICENTER":65.5499,"MEAN_ANOMALY":294.582,"EPHEMERIS_TYPE":0,"NORAD_CAT_ID":51631,"ELEMENT_SET_NO":999,"REV_AT_EPOCH":21165,"BSTAR":-0.0015065888,"MEAN_MOTION_DOT":-0.00000513,"MEAN_MOTION_DDOT":0}]}
